
# Worst residual: 5.53 km
# MJD 57081.000000 (2015 Feb 28  0:00)
C1NHY61 = A10hwSu = prob. Vela
1 89962U 00000ABL 15059.49922241  .00000000  00000-0  00000-0 0 11787
2 89962 068.7381 345.4418 7629885 063.2673 086.3981 00.21375886    05

# Worst residual: 2.61 km
# MJD 57082.000000 (2015 Mar  1  0:00)
C1NHY61 = A10hwSu = prob. Vela
1 89962U 00000ABL 15060.49922241  .00000000  00000-0  00000-0 0 11789
2 89962 068.7132 345.3762 7629699 063.2929 163.3310 00.21366173    08

# Worst residual: 3.24 km
# MJD 57083.000000 (2015 Mar  2  0:00)
C1NHY61 = A10hwSu = prob. Vela
1 89962U 00000ABL 15061.49922241  .00000000  00000-0  00000-0 0 11780
2 89962 068.6809 345.2972 7628047 063.2920 240.3035 00.21357541    06

# Worst residual: 20.36 km
# MJD 57084.000000 (2015 Mar  3  0:00)
C1NHY61 = A10hwSu = prob. Vela
1 89962U 00000ABL 15062.49922241  .00000000  00000-0  00000-0 0 11781
2 89962 068.6505 345.2239 7626891 063.3099 317.1592 00.21371496    04

# Worst residual: 38.63 km
# MJD 57085.000000 (2015 Mar  4  0:00)
C1NHY61 = A10hwSu = prob. Vela
1 89962U 00000ABL 15063.49922241  .00000000  00000-0  00000-0 0 11782
2 89962 068.6183 345.1509 7623820 063.2505 034.2233 00.21433769    06

# Worst residual: 4.51 km
# MJD 57086.000000 (2015 Mar  5  0:00)
C1NHY61 = A10hwSu = prob. Vela
1 89962U 00000ABL 15064.49922241  .00000000  00000-0  00000-0 0 11783
2 89962 068.5935 345.0803 7638808 063.2558 111.0194 00.21382398    07

# Worst residual: 9.95 km
# MJD 57087.000000 (2015 Mar  6  0:00)
C1NHY61 = A10hwSu = prob. Vela
1 89962U 00000ABL 15065.49922241  .00000000  00000-0  00000-0 0 11784
2 89962 068.5739 345.0250 7638193 063.2426 188.1199 00.21378939    02

# Worst residual: 14.36 km
# MJD 57088.000000 (2015 Mar  7  0:00)
C1NHY61 = A10hwSu = prob. Vela
1 89962U 00000ABL 15066.49922241  .00000000  00000-0  00000-0 0 11785
2 89962 068.5572 345.0024 7634267 063.1392 265.3941 00.21343301    03

# Worst residual: 28.80 km
# MJD 57089.000000 (2015 Mar  8  0:00)
C1NHY61 = A10hwSu = prob. Vela
1 89962U 00000ABL 15067.49922241  .00000000  00000-0  00000-0 0 11786
2 89962 068.5276 344.9528 7643857 063.1455 342.3784 00.21309520    02

# Worst residual: 15.65 km
# MJD 57090.000000 (2015 Mar  9  0:00)
C1NHY61 = A10hwSu = prob. Vela
1 89962U 00000ABL 15068.49922241  .00000000  00000-0  00000-0 0 11787
2 89962 068.4743 344.8843 7642568 063.1404 059.3325 00.21385485    01

# Worst residual: 5.57 km
# MJD 57091.000000 (2015 Mar 10  0:00)
C1NHY61 = A10hwSu = prob. Vela
1 89962U 00000ABL 15069.49922241  .00000000  00000-0  00000-0 0 11788
2 89962 068.3700 344.7390 7645670 063.2177 136.1497 00.21360279    02

# Worst residual: 6.60 km
# MJD 57092.000000 (2015 Mar 11  0:00)
C1NHY61 = A10hwSu = prob. Vela
1 89962U 00000ABL 15070.49922241  .00000000  00000-0  00000-0 0 11780
2 89962 068.3122 344.6142 7647724 063.2261 213.1821 00.21359991    06

# Worst residual: 4.93 km
# MJD 57093.000000 (2015 Mar 12  0:00)
C1NHY61 = A10hwSu = prob. Vela
1 89962U 00000ABL 15071.49922241  .00000000  00000-0  00000-0 0 11781
2 89962 068.2780 344.5152 7653183 063.2339 290.2095 00.21355874    02

# Worst residual: 21.46 km
# MJD 57094.000000 (2015 Mar 13  0:00)
C1NHY61 = A10hwSu = prob. Vela
1 89962U 00000ABL 15072.49922241  .00000000  00000-0  00000-0 0 11782
2 89962 068.2588 344.4198 7653438 063.2608 007.1363 00.21386834    02

# Worst residual: 3.90 km
# MJD 57095.000000 (2015 Mar 14  0:00)
C1NHY61 = A10hwSu = prob. Vela
1 89962U 00000ABL 15073.49922241  .00000000  00000-0  00000-0 0 11783
2 89962 068.2360 344.3549 7659001 063.2542 084.0802 00.21371530    07

# Worst residual: 6.19 km
# MJD 57096.000000 (2015 Mar 15  0:00)
C1NHY61 = A10hwSu = prob. Vela
1 89962U 00000ABL 15074.49922241  .00000000  00000-0  00000-0 0 11784
2 89962 068.2538 344.3430 7664116 063.2274 161.0775 00.21377107    09

# Worst residual: 3.45 km
# MJD 57097.000000 (2015 Mar 16  0:00)
C1NHY61 = A10hwSu = prob. Vela
1 89962U 00000ABL 15075.49922241  .00000000  00000-0  00000-0 0 11785
2 89962 068.2450 344.3192 7670722 063.2037 238.1715 00.21382928    01

# Worst residual: 20.37 km
# MJD 57098.000000 (2015 Mar 17  0:00)
C1NHY61 = A10hwSu = prob. Vela
1 89962U 00000ABL 15076.49922241  .00000000  00000-0  00000-0 0 11786
2 89962 068.2162 344.2486 7672154 063.2208 315.1590 00.21394478    07

# Worst residual: 48.03 km
# MJD 57099.000000 (2015 Mar 18  0:00)
C1NHY61 = A10hwSu = prob. Vela
1 89962U 00000ABL 15077.49922241  .00000000  00000-0  00000-0 0 11787
2 89962 068.1857 344.1717 7666849 063.1212 032.3155 00.21466856    06

# Worst residual: 12.62 km
# MJD 57100.000000 (2015 Mar 19  0:00)
C1NHY61 = A10hwSu = prob. Vela
1 89962U 00000ABL 15078.49922241  .00000000  00000-0  00000-0 0 11788
2 89962 068.1464 344.0865 7683555 063.1894 108.9343 00.21367633    04

# Worst residual: 4.07 km
# MJD 57101.000000 (2015 Mar 20  0:00)
C1NHY61 = A10hwSu = prob. Vela
1 89962U 00000ABL 15079.49922241  .00000000  00000-0  00000-0 0 11789
2 89962 068.1198 344.0185 7682895 063.2517 185.6358 00.21348480    09

# Worst residual: 10.31 km
# MJD 57102.000000 (2015 Mar 21  0:00)
C1NHY61 = A10hwSu = prob. Vela
1 89962U 00000ABL 15080.49922241  .00000000  00000-0  00000-0 0 11781
2 89962 068.1009 343.9828 7682958 063.2187 262.6121 00.21335582    08

# Worst residual: 37.40 km
# MJD 57103.000000 (2015 Mar 22  0:00)
C1NHY61 = A10hwSu = prob. Vela
1 89962U 00000ABL 15081.49922241  .00000000  00000-0  00000-0 0 11782
2 89962 068.0747 343.9041 7696302 063.2822 339.5810 00.21314935    05

# Worst residual: 10.13 km
# MJD 57104.000000 (2015 Mar 23  0:00)
C1NHY61 = A10hwSu = prob. Vela
1 89962U 00000ABL 15082.49922241  .00000000  00000-0  00000-0 0 11783
2 89962 068.0348 343.8430 7694074 063.2939 056.5623 00.21393502    01

# Worst residual: 7.67 km
# MJD 57105.000000 (2015 Mar 24  0:00)
C1NHY61 = A10hwSu = prob. Vela
1 89962U 00000ABL 15083.49922241  .00000000  00000-0  00000-0 0 11784
2 89962 068.0087 343.7768 7695203 063.3621 133.3647 00.21360631    05

# Worst residual: 4.47 km
# MJD 57106.000000 (2015 Mar 25  0:00)
C1NHY61 = A10hwSu = prob. Vela
1 89962U 00000ABL 15084.49922241  .00000000  00000-0  00000-0 0 11785
2 89962 068.0095 343.7621 7696012 063.3763 210.1663 00.21355442    04

# Worst residual: 6.26 km
# MJD 57107.000000 (2015 Mar 26  0:00)
C1NHY61 = A10hwSu = prob. Vela
1 89962U 00000ABL 15085.49922241  .00000000  00000-0  00000-0 0 11786
2 89962 067.9879 343.7194 7698718 063.4023 287.0005 00.21367887    01

# Worst residual: 17.87 km
# MJD 57108.000000 (2015 Mar 27  0:00)
C1NHY61 = A10hwSu = prob. Vela
1 89962U 00000ABL 15086.49922241  .00000000  00000-0  00000-0 0 11787
2 89962 067.9645 343.6338 7696065 063.4116 003.9471 00.21408522    01

# Worst residual: 5.40 km
# MJD 57109.000000 (2015 Mar 28  0:00)
C1NHY61 = A10hwSu = prob. Vela
1 89962U 00000ABL 15087.49922241  .00000000  00000-0  00000-0 0 11788
2 89962 067.9267 343.5566 7701835 063.4160 080.9251 00.21381645    01
